{
  "norad_id": 55600,
  "name": "STARLINK-5755",
  "history": [
    {
      "epoch": "2026-03-28T22:00:01.999584Z",
      "apogee_km": 491.9594322175926,
      "perigee_km": 489.3185252292924,
      "latitude_deg": -41.17906882919335,
      "longitude_deg": 20.257602318993168,
      "height_km": 501.89067344111214,
      "semi_major_axis_km": 6868.775978723442,
      "eccentricity": 0.00019224,
      "inclination_deg": 42.9992,
      "raan_deg": 245.496,
      "arg_perigee_deg": 271.973,
      "mean_anomaly_deg": 13.8111,
      "mean_motion_rev_day": 15.25048774
    },
    {
      "epoch": "2026-03-29T04:00:01.999584Z",
      "apogee_km": 490.7412827553944,
      "perigee_km": 488.7372364628409,
      "latitude_deg": -26.2215723105877,
      "longitude_deg": -150.81341706329587,
      "height_km": 495.58882586640794,
      "semi_major_axis_km": 6867.876259609117,
      "eccentricity": 0.0001459,
      "inclination_deg": 42.9991,
      "raan_deg": 244.0848,
      "arg_perigee_deg": 262.1915,
      "mean_anomaly_deg": 317.9078,
      "mean_motion_rev_day": 15.25348465
    },
    {
      "epoch": "2026-03-30T04:00:01.999584Z",
      "apogee_km": 486.9258980509667,
      "perigee_km": 484.9476719861241,
      "latitude_deg": -26.224700998126124,
      "longitude_deg": -40.80846093866782,
      "height_km": 491.89243003607646,
      "semi_major_axis_km": 6864.073785018545,
      "eccentricity": 0.0001441,
      "inclination_deg": 42.9998,
      "raan_deg": 238.4529,
      "arg_perigee_deg": 270.0798,
      "mean_anomaly_deg": 49.8149,
      "mean_motion_rev_day": 15.26616131
    },
    {
      "epoch": "2026-03-30T06:00:02.000160Z",
      "apogee_km": 487.05816187258097,
      "perigee_km": 484.7480005428497,
      "latitude_deg": 35.660806684083106,
      "longitude_deg": 10.25272045592192,
      "height_km": 488.13309731444616,
      "semi_major_axis_km": 6864.040081207715,
      "eccentricity": 0.00016828,
      "inclination_deg": 42.9998,
      "raan_deg": 237.979,
      "arg_perigee_deg": 294.465,
      "mean_anomaly_deg": 123.9493,
      "mean_motion_rev_day": 15.26627375
    },
    {
      "epoch": "2026-03-30T14:00:03.000384Z",
      "apogee_km": 486.73960026118493,
      "perigee_km": 484.7228584980285,
      "latitude_deg": 43.10121349492379,
      "longitude_deg": -68.28562546230543,
      "height_km": 489.8182962245508,
      "semi_major_axis_km": 6863.868229379606,
      "eccentricity": 0.00014691,
      "inclination_deg": 42.9993,
      "raan_deg": 236.1041,
      "arg_perigee_deg": 292.6637,
      "mean_anomaly_deg": 159.9592,
      "mean_motion_rev_day": 15.26684709
    },
    {
      "epoch": "2026-03-30T22:00:00.999936Z",
      "apogee_km": 486.73437275138804,
      "perigee_km": 484.4805936128905,
      "latitude_deg": 33.27506455659728,
      "longitude_deg": -148.49829932508632,
      "height_km": 487.79049179559576,
      "semi_major_axis_km": 6863.7444831821385,
      "eccentricity": 0.00016418,
      "inclination_deg": 43.0,
      "raan_deg": 234.2232,
      "arg_perigee_deg": 284.8796,
      "mean_anomaly_deg": 201.8269,
      "mean_motion_rev_day": 15.26725996
    },
    {
      "epoch": "2026-03-31T20:00:01.999008Z",
      "apogee_km": 484.7772540341821,
      "perigee_km": 482.5677513743103,
      "latitude_deg": 31.01009932730347,
      "longitude_deg": -120.02904419089826,
      "height_km": 485.5107965682292,
      "semi_major_axis_km": 6861.8095027042455,
      "eccentricity": 0.000161,
      "inclination_deg": 43.0,
      "raan_deg": 229.0538,
      "arg_perigee_deg": 317.9159,
      "mean_anomaly_deg": 173.2448,
      "mean_motion_rev_day": 15.2737183
    },
    {
      "epoch": "2026-04-01T20:00:01.999008Z",
      "apogee_km": 484.27664911480133,
      "perigee_km": 482.02340245553387,
      "latitude_deg": -34.87985949730243,
      "longitude_deg": -38.76859445390502,
      "height_km": 492.4825488911198,
      "semi_major_axis_km": 6861.287025785167,
      "eccentricity": 0.0001642,
      "inclination_deg": 43.0002,
      "raan_deg": 223.4082,
      "arg_perigee_deg": 293.2823,
      "mean_anomaly_deg": 303.3303,
      "mean_motion_rev_day": 15.27546294
    },
    {
      "epoch": "2026-04-02T20:00:01.999008Z",
      "apogee_km": 484.1318016574942,
      "perigee_km": 482.15163661914994,
      "latitude_deg": -12.036913505225598,
      "longitude_deg": 73.43233064753123,
      "height_km": 484.6706816636071,
      "semi_major_axis_km": 6861.278719138321,
      "eccentricity": 0.0001443,
      "inclination_deg": 43.0003,
      "raan_deg": 217.7608,
      "arg_perigee_deg": 288.3796,
      "mean_anomaly_deg": 53.9876,
      "mean_motion_rev_day": 15.27549068
    },
    {
      "epoch": "2026-04-02T22:00:01.999584Z",
      "apogee_km": 484.25883785102724,
      "perigee_km": 482.00696906871235,
      "latitude_deg": 42.53179550923981,
      "longitude_deg": 134.06522671956327,
      "height_km": 487.14463603714273,
      "semi_major_axis_km": 6861.26990345987,
      "eccentricity": 0.0001641,
      "inclination_deg": 43.0002,
      "raan_deg": 217.2899,
      "arg_perigee_deg": 288.7837,
      "mean_anomaly_deg": 152.4122,
      "mean_motion_rev_day": 15.27552012
    },
    {
      "epoch": "2026-04-03T20:00:01.999008Z",
      "apogee_km": 484.14240925158265,
      "perigee_km": 482.303564775063,
      "latitude_deg": 43.13039763709378,
      "longitude_deg": 167.4073085321703,
      "height_km": 487.21769461805155,
      "semi_major_axis_km": 6861.359987013322,
      "eccentricity": 0.000134,
      "inclination_deg": 43.0001,
      "raan_deg": 212.1132,
      "arg_perigee_deg": 290.707,
      "mean_anomaly_deg": 157.4341,
      "mean_motion_rev_day": 15.27521929
    }
  ]
}